#dP2022  5 21  0  0  0.00000000      96 __u+U ITR00 EXT  IAC
## 2210 518400.00000000   900.00000000 59720 0.0000000000000
+  116   C06C07C08C09C10C11C12C13C14C16C19C20C21C22C23C24C25
+        C26C27C28C29C30C32C33C34C35C36C37C38C39C40C41C42C43
+        C44C45C46E01E02E03E04E05E07E08E09E10E11E12E13E14E15
+        E18E19E21E24E25E26E27E30E31E33E34E36G01G02G03G04G05
+        G06G07G08G09G10G11G12G13G14G15G16G17G19G20G21G22G23
+        G24G25G26G27G28G29G30G31G32J02J03R01R02R03R04R05R07
+        R08R09R11R12R13R14R15R17R18R19R20R21R22R24  0  0  0
++         9 11 10 10 11  8  9  8  7 10  9  8  8 10  8  8  8
++         7  7  9  9  8  7  8  9  8 10  9 11 10 10  9  9  9
++         9  8  7  9  8  8  9  8  8  8  8  8  9  8  7  8  8
++         8  8  9  8  8  8  8  8  9  8  9  9  9  8  8  8  7
++         7  8  7  8  7  9  7  8  8  8  8  7  8  8  8  8  7
++         7  8  8  7  7  7  7  8  7 10 11  8  8  9  8  8  8
++         8  9  8  9 10  9 10  8  8  8 10  8  8  9  0  0  0
%c M  cc GPS ccc cccc cccc cccc cccc ccccc ccccc ccccc ccccc
%c cc cc ccc ccc cccc cccc cccc cccc ccccc ccccc ccccc ccccc
%f  0.0000000  0.000000000  0.00000000000  0.000000000000000
%f  0.0000000  0.000000000  0.00000000000  0.000000000000000
%i    0    0    0    0      0      0      0      0         0
%i    0    0    0    0      0      0      0      0         0
/* IAC                                ULTRA-RAPID PREDICTION
/* S/V CLOCKS ARE ALIGNED TO GNSS TIME                      
/* G:C1WC2W R:C1PC2P E:C1XC5X C:C2IC6I J:C1CC2S             
/* PCV:IGS14_2196 OL/AL:FES2004  NONE     YN ORB:CoN CLK:CoN
*  2022 05 21 10 30  0.00000000
PC06 -18161.283179  33109.443599 -18959.000924     27.886750
PC07  -4395.923409  37789.502726 -18017.646178   -194.633209
PC08  -6059.179344  20005.659525  36624.294733    323.870982
PC09 -11978.363846  31718.630295 -25002.159713   -807.843078
PC10   2413.432774  40210.443900 -11338.862375    131.152644
PC11   7522.802564  13711.838290  23165.485671    365.560910
PC12  -9611.587066  21848.357136  14475.928889   -612.704061
PC13   2228.228692  23478.773881  35110.010190    -26.605466
PC14  11930.777142  23695.611128  -8529.710884    480.017646
PC16 -21118.427742  32837.733822 -16073.108470    133.369697
PC19 -15666.965243 -16235.745148  16469.552068    867.795834
PC20  -7386.117647 -26911.183719   1051.085164   -923.955772
PC21  -5974.407127  22022.048494  16067.771119   -331.519681
PC22 -15242.913920   4230.090258  22995.163064   -968.803608
PC23  25692.450547   -532.298392  10884.726190   -930.390139
PC24   8007.887426  17518.794677 -20206.582471   -967.293856
PC25  24954.051490  11069.889776  -5844.161986   -733.510693
PC26 -10832.349704  13374.796519 -21970.616263    734.791971
PC27  16503.758450 -21521.630920  -6561.288595    726.573965
PC28  23128.149424 -11469.978496  10596.972903     69.281060
PC29 -16307.046962  -5303.670332 -22028.385820    557.595766
PC30    218.445536 -19678.494370 -19787.270658    498.805870
PC32   5793.055531 -22080.964341 -16040.710616   -963.903478
PC33  15735.826234  16199.586624 -16367.851291   -966.139281
PC34    699.170768  19215.199482  20217.085891   -398.700962
PC35 -22760.020087  11423.074051 -11467.722754    283.984607
PC36 -24413.364183 -11940.457151   6359.183862   -964.710313
PC37  12394.949832 -12523.842223  21658.792777   -910.127132
PC38 -14817.800439  19294.397067  34446.815150    233.677476
PC39 -23798.825132  33383.843759 -10204.361373     34.984112
PC40  -8480.974480  34713.052829 -22268.153880    270.853122
PC41  15366.426222  -3780.900282 -22929.450912   -966.341013
PC42   6698.858879  27076.615656     63.851154   -970.111768
PC43  15862.615616   6096.788401  22117.016495   -922.840519
PC44 -15896.153612  22076.326675   6286.145407    666.613399
PC45 -25553.697068    696.069665 -11167.324758    762.678219
PC46  -9649.732282 -17376.285093  19577.706621   -336.184787
PE01 -23046.391366  -7192.110978 -17123.605993   -480.727195
PE02  23014.549596   7049.736050  17234.563644    300.553888
PE03  18043.455503  -3634.307516 -23179.484768   -560.508399
PE04 -15077.043901  22573.913909  11811.914658  -1032.649036
PE05  10455.878921  17859.491570 -21152.784303   -179.609481
PE07   3078.861340 -28634.099462   6879.302350   -670.651038
PE08  14809.911607 -22853.707314 -11608.057701   -532.822241
PE09  -2962.691474  28601.431299  -6980.886011   -525.772262
PE10 -14274.855920  16861.775453  19687.570794   -514.426175
PE11  -2839.599997  16904.502152  24119.794114   3604.094547
PE12 -22896.065547  14148.718268  12337.524635   4602.974233
PE13   3588.418602 -16934.353524 -24011.181619    428.810400
PE14  -2587.302220 -27312.483969 -17199.959048  -1831.269436
PE15  22950.207518 -14116.435970 -12244.645170    744.336012
PE18    286.747816  20569.758691  11504.060996  -1423.470728
PE19 -17534.164423    814.735349  23847.102461  -5030.130288
PE21 -21016.649700 -20821.744545   -942.277351   -735.457911
PE24   5579.961210  23174.672945 -17576.437473   -626.835755
PE25  20897.177200  20955.876968    678.757815   -574.717030
PE26 -18594.384770  -9440.829567 -21010.700659  -1169.796799
PE27  -6767.558756 -23423.201528  16780.732200   -303.749377
PE30  12218.111305 -11375.890497  24433.589944   -527.932411
PE31 -11322.142893  12222.653700 -24460.020819   -496.977134
PE33 -28688.086443   2987.158838  -6685.236460   -456.425616
PE34  28705.983196  -3179.963941   6477.881569   -518.146090
PE36  17712.895725   9794.862451  21590.121689   -376.736085
PG01  -7612.534580 -13611.087876 -21851.756883    358.274734
PG02 -15382.501831  14887.414685  16470.141314   -653.195327
PG03 -11945.220540 -22899.398578  -6559.060703   -251.933905
PG04  -1850.961037 -21636.729579  15243.396760   -165.178820
PG05   -318.548474  19276.962754  18037.893362    -82.630797
PG06 -25652.013896   5875.016027   3970.431784    311.777116
PG07 -22284.276289  -6929.825922  13535.899032    322.185653
PG08   4149.277372 -24965.572424  -7477.160735    -68.900480
PG09 -10465.640362 -13136.994570  20502.417399   -335.053077
PG10  19251.118962   5549.106757 -17437.377853   -422.886275
PG11 -16843.349430  12583.709770  16213.493981    -22.395654
PG12   7141.021684  23609.345114 -10268.424984   -218.800432
PG13 -13050.313535  23021.549784   -470.461849    315.472858
PG14 -19471.215665  -6904.288700 -16744.833907   -109.193845
PG15   -379.754100  25178.671181  -8347.322395    -59.549612
PG16   6505.244587 -15547.165604  20134.503088   -502.704966
PG17 -16905.518081   4658.593851 -19532.910386    615.275252
PG19 -18264.063181  11447.428411 -15637.122735    160.165597
PG20  -9455.879198  12485.696599  21462.506325    514.471914
PG21   3341.883429 -15447.181126 -20591.500889    161.163353
PG22  17635.354583 -14643.380124 -12845.367639    262.660663
PG23  20154.188425  14709.464979  -9265.652299    -23.266655
PG24   3689.430263  15500.353715 -21552.771214    237.094893
PG25  17598.393670  19916.714687   2354.875345    327.441631
PG26  14677.931621  -6634.283561  21067.842855    207.092887
PG27  12533.163473 -22740.969987   4253.613275    206.143762
PG28 -15773.829028   1710.340874 -20748.978742    354.001019
PG29   8683.726830  13822.114125  20884.358792   -515.897793
PG30 -26292.071119   -479.518008   4695.230223   -528.697170
PG31  25106.372985  -7032.339862   6098.158856   -178.510673
PG32  17157.164928  -7396.633609 -18656.133517   -132.113662
PJ02 -21880.287734  19065.432920 -25988.662113     -0.208738
PJ03 -28873.830288  30688.703970   8015.894753     -2.300215
PR01 -11027.843384  -8032.808317  21563.741665      8.935532
PR02  -8807.078442  13227.549691  20021.828826    519.001139
PR03  -1616.750918  24712.949503   6272.299535     57.009175
PR04   6170.076997  22269.799580 -10775.863268    142.546988
PR05  10608.473149   7650.323899 -21887.065012     93.227878
PR07   1223.663288 -24865.953363  -5405.979283     35.360265
PR08  -6422.810527 -22109.749469  11018.303256    -65.249430
PR09  15986.396734  -3081.004377  19626.515893     56.198935
PR11 -16327.109739 -14733.679016  12946.724604     38.444876
PR12 -23334.977354  -8781.511073  -5324.319320     18.538018
PR13 -16912.932285   1920.424693 -19013.034518    -22.606811
PR14    575.611049  12326.788073 -22310.094159     25.601015
PR15  16755.356295  14897.859410 -12141.790741     95.963933
PR17 -11730.429573  16151.899944  15859.782227    527.931952
PR18   3864.953160   9880.579099  23206.813064    117.576034
PR19  16945.925561   -289.288596  19056.241775   -189.790860
PR20  22155.693267 -12522.788456   1325.153509    -70.991003
PR21  10618.362109 -15836.164551 -16963.922919   -303.003537
PR22  -4737.082232  -9293.352941 -23295.485888   -184.523408
PR24 -21714.066929  13362.042921   -591.958180     94.775213
EOF
